KUIPER-00089            
1 64834U 25151U   25318.58809660  .00005243  00000+0  71889-3 0  9999
2 64834  51.9012  74.3958 0001462 269.8057  90.2738 14.79773324 18477
KUIPER-00090            
1 64835U 25151V   25318.83334491  .00020088  00000+0  14808-2 0  9994
2 64835  51.8938  66.1196 0004644 300.0370 173.7979 15.03279559  5848
KUIPER-00091            
1 64836U 25151W   25318.83334491  .00056229  00000+0  74126-2 0  9990
2 64836  51.8999  70.9844 0007587 275.0825 213.8094 14.79520987  5192
KUIPER-00092            
1 64837U 25151X   25318.83334491  .00034194  00000+0  46413-2 0  9996
2 64837  51.9002  78.4406 0006168 215.3799 336.8098 14.78537414  5807
KUIPER-00093            
1 64838U 25151Y   25318.73092442  .00004742  00000+0  64978-3 0  9996
2 64838  51.8991  81.4225 0013864 227.2095 132.7702 14.79944500 18380
KUIPER-00094            
1 64839U 25151Z   25318.35664005  .00010787  00000+0  78945-3 0  9990
2 64839  51.8902  72.7395 0005365 248.3280 111.7121 15.04039983 18472
KUIPER-00081            
1 65132U 25171A   25318.83334491 -.01700132  00000+0 -61167-1 0  9994
2 65132  51.8764 304.2483 0005223  91.3310 167.4015 15.31304744  5284
KUIPER-00088            
1 65133U 25171B   25318.83334491  .00039258  00000+0  46572-2 0  9990
2 65133  51.8985 313.4576 0008418  98.0552 265.2626 14.84097878  1304
